{
  "properties": {
    "path": "operators/highway/services",
    "preserveTags": ["^name"],
    "exclude": {"generic": ["^services$"]}
  },
  "items": [
    {
      "displayName": "Ředitelství silnic a dálnic",
      "locationSet": {"include": ["cz"]},
      "tags": {
        "highway": "services",
        "operator": "Ředitelství silnic a dálnic",
        "operator:wikidata": "Q10513470"
      }
    },
    {
      "displayName": "Hrvatske autoceste",
      "id": "hrvatskeautoceste-34b86e",
      "locationSet": {"include": ["hr"]},
      "tags": {
        "highway": "services",
        "operator": "Hrvatske autoceste",
        "operator:wikidata": "Q1632546"
      }
    },
    {
      "displayName": "Moto",
      "id": "moto-5b1071",
      "locationSet": {"include": ["gb"]},
      "tags": {
        "highway": "services",
        "operator": "Moto",
        "operator:wikidata": "Q6917970"
      }
    },
    {
      "displayName": "Roadchef",
      "id": "roadchef-5b1071",
      "locationSet": {"include": ["gb"]},
      "tags": {
        "highway": "services",
        "name": "Roadchef",
        "operator": "Roadchef",
        "operator:wikidata": "Q7339582"
      }
    },
    {
      "displayName": "Welcome Break",
      "id": "welcomebreak-5b1071",
      "locationSet": {"include": ["gb"]},
      "tags": {
        "highway": "services",
        "name": "Welcome Break",
        "operator": "Welcome Break",
        "operator:wikidata": "Q7980609"
      }
    }
  ]
}
