{
  "properties": {
    "path": "operators/amenity/waste_transfer_station",
    "exclude": {"generic": ["^transfer station$"]}
  },
  "items": [
    {
      "displayName": "AMVA",
      "id": "amva-69c463",
      "locationSet": {"include": ["001"]},
      "tags": {
        "amenity": "waste_transfer_station",
        "operator": "AMVA"
      }
    },
    {
      "displayName": "CAR",
      "id": "car-69c463",
      "locationSet": {"include": ["001"]},
      "tags": {
        "amenity": "waste_transfer_station",
        "operator": "CAR"
      }
    },
    {
      "displayName": "Collectivité de Saint-Martin",
      "id": "collectivitedesaintmartin-69c463",
      "locationSet": {"include": ["001"]},
      "tags": {
        "amenity": "waste_transfer_station",
        "operator": "Collectivité de Saint-Martin"
      }
    },
    {
      "displayName": "CORPOAMAZONIA",
      "id": "corpoamazonia-69c463",
      "locationSet": {"include": ["001"]},
      "tags": {
        "amenity": "waste_transfer_station",
        "operator": "CORPOAMAZONIA"
      }
    },
    {
      "displayName": "CORPORINOQUIA",
      "id": "corporinoquia-69c463",
      "locationSet": {"include": ["001"]},
      "tags": {
        "amenity": "waste_transfer_station",
        "operator": "CORPORINOQUIA"
      }
    },
    {
      "displayName": "CVC",
      "id": "cvc-69c463",
      "locationSet": {"include": ["001"]},
      "tags": {
        "amenity": "waste_transfer_station",
        "operator": "CVC"
      }
    },
    {
      "displayName": "EPABAR",
      "id": "epabar-69c463",
      "locationSet": {"include": ["001"]},
      "tags": {
        "amenity": "waste_transfer_station",
        "operator": "EPABAR"
      }
    },
    {
      "displayName": "Ing. Angel Jaymar Reyes Camacho",
      "id": "ingangeljaymarreyescamacho-69c463",
      "locationSet": {"include": ["001"]},
      "tags": {
        "amenity": "waste_transfer_station",
        "operator": "Ing. Angel Jaymar Reyes Camacho"
      }
    },
    {
      "displayName": "Komunala Nova Gorica",
      "id": "komunalanovagorica-69c463",
      "locationSet": {"include": ["001"]},
      "tags": {
        "amenity": "waste_transfer_station",
        "operator": "Komunala Nova Gorica"
      }
    },
    {
      "displayName": "Republic Services",
      "id": "republicservices-89d4d0",
      "locationSet": {"include": ["us"]},
      "tags": {
        "amenity": "waste_transfer_station",
        "operator": "Republic Services",
        "operator:wikidata": "Q7314415"
      }
    },
    {
      "displayName": "San Juan County Public Works",
      "id": "sanjuancountypublicworks-69c463",
      "locationSet": {"include": ["001"]},
      "tags": {
        "amenity": "waste_transfer_station",
        "operator": "San Juan County Public Works"
      }
    },
    {
      "displayName": "SDA",
      "id": "sda-69c463",
      "locationSet": {"include": ["001"]},
      "tags": {
        "amenity": "waste_transfer_station",
        "operator": "SDA"
      }
    },
    {
      "displayName": "Servicio Provincial de Tratamiento de Residuos Municipales",
      "id": "servicioprovincialdetratamientoderesiduosmunicipales-69c463",
      "locationSet": {"include": ["001"]},
      "tags": {
        "amenity": "waste_transfer_station",
        "operator": "Servicio Provincial de Tratamiento de Residuos Municipales"
      }
    },
    {
      "displayName": "Universidad Mayor de San Andrés",
      "id": "universidadmayordesanandres-69c463",
      "locationSet": {"include": ["001"]},
      "tags": {
        "amenity": "waste_transfer_station",
        "operator": "Universidad Mayor de San Andrés"
      }
    },
    {
      "displayName": "Waste Management",
      "id": "wastemanagement-89d4d0",
      "locationSet": {"include": ["us"]},
      "tags": {
        "amenity": "waste_transfer_station",
        "operator": "Waste Management",
        "operator:short": "WM",
        "operator:wikidata": "Q2552219"
      }
    },
    {
      "displayName": "КП \"Кривбасводоканал\"",
      "id": "fec9a6-69c463",
      "locationSet": {"include": ["001"]},
      "tags": {
        "amenity": "waste_transfer_station",
        "operator": "КП \"Кривбасводоканал\""
      }
    }
  ]
}
