{
  "properties": {
    "path": "operators/amenity/waste_disposal",
    "exclude": {"generic": ["^dumpster$"]}
  },
  "items": [
    {
      "displayName": "ACV",
      "id": "acv-709f3f",
      "locationSet": {"include": ["001"]},
      "tags": {
        "amenity": "waste_disposal",
        "operator": "ACV"
      }
    },
    {
      "displayName": "Agglomération du Gard Rhodanien",
      "id": "agglomerationdugardrhodanien-709f3f",
      "locationSet": {"include": ["001"]},
      "tags": {
        "amenity": "waste_disposal",
        "operator": "Agglomération du Gard Rhodanien"
      }
    },
    {
      "displayName": "Aguas y Residuos del Campo de Gibraltar, S. A.",
      "id": "aguasyresiduosdelcampodegibraltarsa-709f3f",
      "locationSet": {"include": ["001"]},
      "tags": {
        "amenity": "waste_disposal",
        "operator": "Aguas y Residuos del Campo de Gibraltar, S. A."
      }
    },
    {
      "displayName": "AMA",
      "id": "ama-709f3f",
      "locationSet": {"include": ["001"]},
      "tags": {
        "amenity": "waste_disposal",
        "operator": "AMA"
      }
    },
    {
      "displayName": "American Disposal Services",
      "id": "americandisposalservices-709f3f",
      "locationSet": {"include": ["001"]},
      "tags": {
        "amenity": "waste_disposal",
        "operator": "American Disposal Services"
      }
    },
    {
      "displayName": "Arcgisa",
      "id": "arcgisa-709f3f",
      "locationSet": {"include": ["001"]},
      "tags": {
        "amenity": "waste_disposal",
        "operator": "Arcgisa"
      }
    },
    {
      "displayName": "Ayuntamiento de Majadahonda",
      "id": "ayuntamientodemajadahonda-709f3f",
      "locationSet": {"include": ["001"]},
      "tags": {
        "amenity": "waste_disposal",
        "operator": "Ayuntamiento de Majadahonda"
      }
    },
    {
      "displayName": "BC Parks",
      "id": "bcparks-709f3f",
      "locationSet": {"include": ["001"]},
      "tags": {
        "amenity": "waste_disposal",
        "operator": "BC Parks"
      }
    },
    {
      "displayName": "Bruxelles-Propreté - Net Brussel",
      "id": "bruxellespropretenetbrussel-709f3f",
      "locationSet": {"include": ["001"]},
      "tags": {
        "amenity": "waste_disposal",
        "operator": "Bruxelles-Propreté - Net Brussel"
      }
    },
    {
      "displayName": "BSR",
      "id": "bsr-709f3f",
      "locationSet": {"include": ["001"]},
      "tags": {
        "amenity": "waste_disposal",
        "operator": "BSR"
      }
    },
    {
      "displayName": "Canal and River Trust",
      "id": "canalandrivertrust-709f3f",
      "locationSet": {"include": ["001"]},
      "tags": {
        "amenity": "waste_disposal",
        "operator": "Canal and River Trust"
      }
    },
    {
      "displayName": "CCLL",
      "id": "ccll-709f3f",
      "locationSet": {"include": ["001"]},
      "tags": {
        "amenity": "waste_disposal",
        "operator": "CCLL"
      }
    },
    {
      "displayName": "CCMPCVV",
      "id": "ccmpcvv-709f3f",
      "locationSet": {"include": ["001"]},
      "tags": {
        "amenity": "waste_disposal",
        "operator": "CCMPCVV"
      }
    },
    {
      "displayName": "CCPOP",
      "id": "ccpop-709f3f",
      "locationSet": {"include": ["001"]},
      "tags": {
        "amenity": "waste_disposal",
        "operator": "CCPOP"
      }
    },
    {
      "displayName": "CCPRO",
      "id": "ccpro-709f3f",
      "locationSet": {"include": ["001"]},
      "tags": {
        "amenity": "waste_disposal",
        "operator": "CCPRO"
      }
    },
    {
      "displayName": "CCVCD",
      "id": "ccvcd-709f3f",
      "locationSet": {"include": ["001"]},
      "tags": {
        "amenity": "waste_disposal",
        "operator": "CCVCD"
      }
    },
    {
      "displayName": "Chester Township",
      "id": "chestertownship-709f3f",
      "locationSet": {"include": ["001"]},
      "tags": {
        "amenity": "waste_disposal",
        "operator": "Chester Township"
      }
    },
    {
      "displayName": "Čistoća Herceg Novi",
      "id": "cistocahercegnovi-709f3f",
      "locationSet": {"include": ["001"]},
      "tags": {
        "amenity": "waste_disposal",
        "operator": "Čistoća Herceg Novi"
      }
    },
    {
      "displayName": "City of Denton Solid Waste Department",
      "id": "cityofdentonsolidwastedepartment-709f3f",
      "locationSet": {"include": ["001"]},
      "tags": {
        "amenity": "waste_disposal",
        "operator": "City of Denton Solid Waste Department"
      }
    },
    {
      "displayName": "City of Edinburgh Council",
      "id": "cityofedinburghcouncil-709f3f",
      "locationSet": {"include": ["001"]},
      "tags": {
        "amenity": "waste_disposal",
        "operator": "City of Edinburgh Council"
      }
    },
    {
      "displayName": "City of Kingman",
      "id": "cityofkingman-709f3f",
      "locationSet": {"include": ["001"]},
      "tags": {
        "amenity": "waste_disposal",
        "operator": "City of Kingman"
      }
    },
    {
      "displayName": "City of Turku",
      "id": "cityofturku-709f3f",
      "locationSet": {"include": ["001"]},
      "tags": {
        "amenity": "waste_disposal",
        "operator": "City of Turku"
      }
    },
    {
      "displayName": "Clean Africa",
      "id": "cleanafrica-709f3f",
      "locationSet": {"include": ["001"]},
      "tags": {
        "amenity": "waste_disposal",
        "operator": "Clean Africa"
      }
    },
    {
      "displayName": "Cliba Neuquén",
      "id": "clibaneuquen-709f3f",
      "locationSet": {"include": ["001"]},
      "tags": {
        "amenity": "waste_disposal",
        "operator": "Cliba Neuquén"
      }
    },
    {
      "displayName": "Clisson Sèvre et Maine Agglo",
      "id": "clissonsevreetmaineagglo-709f3f",
      "locationSet": {"include": ["001"]},
      "tags": {
        "amenity": "waste_disposal",
        "operator": "Clisson Sèvre et Maine Agglo"
      }
    },
    {
      "displayName": "COLLECTIVITE DE SAINT MARTIN",
      "id": "collectivitedesaintmartin-709f3f",
      "locationSet": {"include": ["001"]},
      "tags": {
        "amenity": "waste_disposal",
        "operator": "COLLECTIVITE DE SAINT MARTIN"
      }
    },
    {
      "displayName": "Comarca de Somontano de Barbastro",
      "id": "comarcadesomontanodebarbastro-709f3f",
      "locationSet": {"include": ["001"]},
      "tags": {
        "amenity": "waste_disposal",
        "operator": "Comarca de Somontano de Barbastro"
      }
    },
    {
      "displayName": "Comminauté de Communes de Haute Tarentaise",
      "id": "comminautedecommunesdehautetarentaise-709f3f",
      "locationSet": {"include": ["001"]},
      "tags": {
        "amenity": "waste_disposal",
        "operator": "Comminauté de Communes de Haute Tarentaise"
      }
    },
    {
      "displayName": "Communauté de communes du Béarn des Gaves",
      "id": "communautedecommunesdubearndesgaves-709f3f",
      "locationSet": {"include": ["001"]},
      "tags": {
        "amenity": "waste_disposal",
        "operator": "Communauté de communes du Béarn des Gaves"
      }
    },
    {
      "displayName": "Communauté de communes Terres Touloises",
      "id": "communautedecommunesterrestouloises-709f3f",
      "locationSet": {"include": ["001"]},
      "tags": {
        "amenity": "waste_disposal",
        "operator": "Communauté de communes Terres Touloises"
      }
    },
    {
      "displayName": "community",
      "id": "community-709f3f",
      "locationSet": {"include": ["001"]},
      "tags": {
        "amenity": "waste_disposal",
        "operator": "community"
      }
    },
    {
      "displayName": "Comunales",
      "id": "comunales-709f3f",
      "locationSet": {"include": ["001"]},
      "tags": {
        "amenity": "waste_disposal",
        "operator": "Comunales"
      }
    },
    {
      "displayName": "Concello da Coruña",
      "id": "concellodacoruna-709f3f",
      "locationSet": {"include": ["001"]},
      "tags": {
        "amenity": "waste_disposal",
        "operator": "Concello da Coruña"
      }
    },
    {
      "displayName": "Concello de Camariñas",
      "id": "concellodecamarinas-709f3f",
      "locationSet": {"include": ["001"]},
      "tags": {
        "amenity": "waste_disposal",
        "operator": "Concello de Camariñas"
      }
    },
    {
      "displayName": "CRS",
      "id": "crs-709f3f",
      "locationSet": {"include": ["001"]},
      "tags": {
        "amenity": "waste_disposal",
        "operator": "CRS"
      }
    },
    {
      "displayName": "Cure",
      "id": "cure-709f3f",
      "locationSet": {"include": ["001"]},
      "tags": {
        "amenity": "waste_disposal",
        "operator": "Cure"
      }
    },
    {
      "displayName": "DLVA",
      "id": "dlva-709f3f",
      "locationSet": {"include": ["001"]},
      "tags": {
        "amenity": "waste_disposal",
        "operator": "DLVA"
      }
    },
    {
      "displayName": "Douarnenez Communauté",
      "id": "douarnenezcommunaute-709f3f",
      "locationSet": {"include": ["001"]},
      "tags": {
        "amenity": "waste_disposal",
        "operator": "Douarnenez Communauté"
      }
    },
    {
      "displayName": "Empresa Municipal de Servicios de Aseo",
      "id": "empresamunicipaldeserviciosdeaseo-709f3f",
      "locationSet": {"include": ["001"]},
      "tags": {
        "amenity": "waste_disposal",
        "operator": "Empresa Municipal de Servicios de Aseo"
      }
    },
    {
      "displayName": "EMSA",
      "id": "emsa-709f3f",
      "locationSet": {"include": ["001"]},
      "tags": {
        "amenity": "waste_disposal",
        "operator": "EMSA"
      }
    },
    {
      "displayName": "FCC",
      "id": "fcc-709f3f",
      "locationSet": {"include": ["001"]},
      "tags": {
        "amenity": "waste_disposal",
        "operator": "FCC"
      }
    },
    {
      "displayName": "GAMEA",
      "id": "gamea-709f3f",
      "locationSet": {"include": ["001"]},
      "tags": {
        "amenity": "waste_disposal",
        "operator": "GAMEA"
      }
    },
    {
      "displayName": "Gbarnga City Corporation",
      "id": "gbarngacitycorporation-709f3f",
      "locationSet": {"include": ["001"]},
      "tags": {
        "amenity": "waste_disposal",
        "operator": "Gbarnga City Corporation"
      }
    },
    {
      "displayName": "Gemeente Amsterdam",
      "id": "gemeenteamsterdam-709f3f",
      "locationSet": {"include": ["001"]},
      "tags": {
        "amenity": "waste_disposal",
        "operator": "Gemeente Amsterdam"
      }
    },
    {
      "displayName": "Gemeente Den Haag",
      "id": "gemeentedenhaag-709f3f",
      "locationSet": {"include": ["001"]},
      "tags": {
        "amenity": "waste_disposal",
        "operator": "Gemeente Den Haag"
      }
    },
    {
      "displayName": "Gemeente Groningen",
      "id": "gemeentegroningen-709f3f",
      "locationSet": {"include": ["001"]},
      "tags": {
        "amenity": "waste_disposal",
        "operator": "Gemeente Groningen"
      }
    },
    {
      "displayName": "Gobierno Autónomo Municipal de La Paz",
      "id": "gobiernoautonomomunicipaldelapaz-709f3f",
      "locationSet": {"include": ["001"]},
      "tags": {
        "amenity": "waste_disposal",
        "operator": "Gobierno Autónomo Municipal de La Paz"
      }
    },
    {
      "displayName": "Grand Reims",
      "id": "grandreims-709f3f",
      "locationSet": {"include": ["001"]},
      "tags": {
        "amenity": "waste_disposal",
        "operator": "Grand Reims"
      }
    },
    {
      "displayName": "Grenoble Alpes Métropole",
      "id": "grenoblealpesmetropole-709f3f",
      "locationSet": {"include": ["001"]},
      "tags": {
        "amenity": "waste_disposal",
        "operator": "Grenoble Alpes Métropole"
      }
    },
    {
      "displayName": "Grupo Energético de Puerto Real",
      "id": "grupoenergeticodepuertoreal-709f3f",
      "locationSet": {"include": ["001"]},
      "tags": {
        "amenity": "waste_disposal",
        "operator": "Grupo Energético de Puerto Real"
      }
    },
    {
      "displayName": "Gruppo HERA",
      "id": "gruppohera-709f3f",
      "locationSet": {"include": ["001"]},
      "tags": {
        "amenity": "waste_disposal",
        "operator": "Gruppo HERA"
      }
    },
    {
      "displayName": "Haagse Milieu Services",
      "id": "haagsemilieuservices-709f3f",
      "locationSet": {"include": ["001"]},
      "tags": {
        "amenity": "waste_disposal",
        "operator": "Haagse Milieu Services"
      }
    },
    {
      "displayName": "Haarlem",
      "id": "haarlem-709f3f",
      "locationSet": {"include": ["001"]},
      "tags": {
        "amenity": "waste_disposal",
        "operator": "Haarlem"
      }
    },
    {
      "displayName": "HERA",
      "id": "hera-709f3f",
      "locationSet": {"include": ["001"]},
      "tags": {
        "amenity": "waste_disposal",
        "operator": "HERA"
      }
    },
    {
      "displayName": "Hocking Hills State Park",
      "id": "hockinghillsstatepark-709f3f",
      "locationSet": {"include": ["001"]},
      "tags": {
        "amenity": "waste_disposal",
        "operator": "Hocking Hills State Park"
      }
    },
    {
      "displayName": "Hygea",
      "id": "hygea-709f3f",
      "locationSet": {"include": ["001"]},
      "tags": {
        "amenity": "waste_disposal",
        "operator": "Hygea"
      }
    },
    {
      "displayName": "im",
      "id": "im-709f3f",
      "locationSet": {"include": ["001"]},
      "tags": {
        "amenity": "waste_disposal",
        "operator": "im"
      }
    },
    {
      "displayName": "Inagra",
      "id": "inagra-709f3f",
      "locationSet": {"include": ["001"]},
      "tags": {
        "amenity": "waste_disposal",
        "operator": "Inagra"
      }
    },
    {
      "displayName": "Intendencia de Montevideo",
      "id": "intendenciademontevideo-709f3f",
      "locationSet": {"include": ["001"]},
      "tags": {
        "amenity": "waste_disposal",
        "operator": "Intendencia de Montevideo"
      }
    },
    {
      "displayName": "Intradel",
      "id": "intradel-709f3f",
      "locationSet": {"include": ["001"]},
      "tags": {
        "amenity": "waste_disposal",
        "operator": "Intradel"
      }
    },
    {
      "displayName": "Inusa",
      "id": "inusa-709f3f",
      "locationSet": {"include": ["001"]},
      "tags": {
        "amenity": "waste_disposal",
        "operator": "Inusa"
      }
    },
    {
      "displayName": "Irado",
      "id": "irado-709f3f",
      "locationSet": {"include": ["001"]},
      "tags": {
        "amenity": "waste_disposal",
        "operator": "Irado"
      }
    },
    {
      "displayName": "Iridex",
      "id": "iridex-709f3f",
      "locationSet": {"include": ["001"]},
      "tags": {
        "amenity": "waste_disposal",
        "operator": "Iridex"
      }
    },
    {
      "displayName": "IWG",
      "id": "iwg-709f3f",
      "locationSet": {"include": ["001"]},
      "tags": {
        "amenity": "waste_disposal",
        "operator": "IWG"
      }
    },
    {
      "displayName": "JP \"Komos\" d.o.o. Mostar",
      "id": "jpkomosdoomostar-709f3f",
      "locationSet": {"include": ["001"]},
      "tags": {
        "amenity": "waste_disposal",
        "operator": "JP \"Komos\" d.o.o. Mostar"
      }
    },
    {
      "displayName": "JP \"Parkovi\" d.o.o. Mostar",
      "id": "jpparkovidoomostar-709f3f",
      "locationSet": {"include": ["001"]},
      "tags": {
        "amenity": "waste_disposal",
        "operator": "JP \"Parkovi\" d.o.o. Mostar"
      }
    },
    {
      "displayName": "Kenyatta University",
      "id": "kenyattauniversity-709f3f",
      "locationSet": {"include": ["001"]},
      "tags": {
        "amenity": "waste_disposal",
        "operator": "Kenyatta University"
      }
    },
    {
      "displayName": "Kompred a.d. Ugljevik",
      "id": "kompredadugljevik-709f3f",
      "locationSet": {"include": ["001"]},
      "tags": {
        "amenity": "waste_disposal",
        "operator": "Kompred a.d. Ugljevik"
      }
    },
    {
      "displayName": "KOSIT, a.s.",
      "id": "kositas-709f3f",
      "locationSet": {"include": ["001"]},
      "tags": {
        "amenity": "waste_disposal",
        "operator": "KOSIT, a.s."
      }
    },
    {
      "displayName": "Landal Greenparks",
      "id": "landalgreenparks-709f3f",
      "locationSet": {"include": ["001"]},
      "tags": {
        "amenity": "waste_disposal",
        "operator": "Landal Greenparks"
      }
    },
    {
      "displayName": "Limasam",
      "id": "limasam-709f3f",
      "locationSet": {"include": ["001"]},
      "tags": {
        "amenity": "waste_disposal",
        "operator": "Limasam"
      }
    },
    {
      "displayName": "Limoges Métropole",
      "id": "limogesmetropole-709f3f",
      "locationSet": {"include": ["001"]},
      "tags": {
        "amenity": "waste_disposal",
        "operator": "Limoges Métropole"
      }
    },
    {
      "displayName": "LWF",
      "id": "lwf-709f3f",
      "locationSet": {"include": ["001"]},
      "tags": {
        "amenity": "waste_disposal",
        "operator": "LWF"
      }
    },
    {
      "displayName": "Mairie d'Ahtis-Mons",
      "id": "mairiedahtismons-709f3f",
      "locationSet": {"include": ["001"]},
      "tags": {
        "amenity": "waste_disposal",
        "operator": "Mairie d'Ahtis-Mons"
      }
    },
    {
      "displayName": "Marius Pedersen a.s.",
      "id": "mariuspedersenas-709f3f",
      "locationSet": {"include": ["001"]},
      "tags": {
        "amenity": "waste_disposal",
        "operator": "Marius Pedersen a.s."
      }
    },
    {
      "displayName": "marjetica koper",
      "id": "marjeticakoper-709f3f",
      "locationSet": {"include": ["001"]},
      "tags": {
        "amenity": "waste_disposal",
        "operator": "marjetica koper"
      }
    },
    {
      "displayName": "McGree Trucking",
      "id": "mcgreetrucking-709f3f",
      "locationSet": {"include": ["001"]},
      "tags": {
        "amenity": "waste_disposal",
        "operator": "McGree Trucking"
      }
    },
    {
      "displayName": "Métropole de Rouen",
      "id": "metropolederouen-709f3f",
      "locationSet": {"include": ["001"]},
      "tags": {
        "amenity": "waste_disposal",
        "operator": "Métropole de Rouen"
      }
    },
    {
      "displayName": "MPO Toruń",
      "id": "mpotorun-709f3f",
      "locationSet": {"include": ["001"]},
      "tags": {
        "amenity": "waste_disposal",
        "operator": "MPO Toruń"
      }
    },
    {
      "displayName": "Municipalidad de Trenque Lauquen",
      "id": "municipalidaddetrenquelauquen-709f3f",
      "locationSet": {"include": ["001"]},
      "tags": {
        "amenity": "waste_disposal",
        "operator": "Municipalidad de Trenque Lauquen"
      }
    },
    {
      "displayName": "Municipalidad de Villa El Chocón",
      "id": "municipalidaddevillaelchocon-709f3f",
      "locationSet": {"include": ["001"]},
      "tags": {
        "amenity": "waste_disposal",
        "operator": "Municipalidad de Villa El Chocón"
      }
    },
    {
      "displayName": "Newbury Transfer Station",
      "id": "newburytransferstation-709f3f",
      "locationSet": {"include": ["001"]},
      "tags": {
        "amenity": "waste_disposal",
        "operator": "Newbury Transfer Station"
      }
    },
    {
      "displayName": "Prefeitura Municipal de São Paulo",
      "id": "prefeituramunicipaldesaopaulo-709f3f",
      "locationSet": {"include": ["001"]},
      "tags": {
        "amenity": "waste_disposal",
        "operator": "Prefeitura Municipal de São Paulo"
      }
    },
    {
      "displayName": "Przedsiębiorstwo Gospodarki Komunalnej i Mieszkaniowej w Inowrocławiu",
      "id": "przedsiebiorstwogospodarkikomunalnejimieszkaniowejwinowroclawiu-709f3f",
      "locationSet": {"include": ["001"]},
      "tags": {
        "amenity": "waste_disposal",
        "operator": "Przedsiębiorstwo Gospodarki Komunalnej i Mieszkaniowej w Inowrocławiu"
      }
    },
    {
      "displayName": "PSM Chrzanów",
      "id": "psmchrzanow-709f3f",
      "locationSet": {"include": ["001"]},
      "tags": {
        "amenity": "waste_disposal",
        "operator": "PSM Chrzanów"
      }
    },
    {
      "displayName": "Region of Niagara",
      "id": "regionofniagara-709f3f",
      "locationSet": {"include": ["001"]},
      "tags": {
        "amenity": "waste_disposal",
        "operator": "Region of Niagara"
      }
    },
    {
      "displayName": "Rennes Métropole",
      "id": "rennesmetropole-709f3f",
      "locationSet": {"include": ["001"]},
      "tags": {
        "amenity": "waste_disposal",
        "operator": "Rennes Métropole"
      }
    },
    {
      "displayName": "Republic Services",
      "id": "republicservices-84de51",
      "locationSet": {"include": ["us"]},
      "tags": {
        "amenity": "waste_disposal",
        "operator": "Republic Services",
        "operator:wikidata": "Q7314415"
      }
    },
    {
      "displayName": "Rodez Agglomération",
      "id": "rodezagglomeration-709f3f",
      "locationSet": {"include": ["001"]},
      "tags": {
        "amenity": "waste_disposal",
        "operator": "Rodez Agglomération"
      }
    },
    {
      "displayName": "Roteb",
      "id": "roteb-709f3f",
      "locationSet": {"include": ["001"]},
      "tags": {
        "amenity": "waste_disposal",
        "operator": "Roteb"
      }
    },
    {
      "displayName": "Rova",
      "id": "rova-709f3f",
      "locationSet": {"include": ["001"]},
      "tags": {
        "amenity": "waste_disposal",
        "operator": "Rova"
      }
    },
    {
      "displayName": "Samae",
      "id": "samae-709f3f",
      "locationSet": {"include": ["001"]},
      "tags": {
        "amenity": "waste_disposal",
        "operator": "Samae"
      }
    },
    {
      "displayName": "SAMVA",
      "id": "samva-709f3f",
      "locationSet": {"include": ["001"]},
      "tags": {
        "amenity": "waste_disposal",
        "operator": "SAMVA"
      }
    },
    {
      "displayName": "Save Environment Actors",
      "id": "saveenvironmentactors-709f3f",
      "locationSet": {"include": ["001"]},
      "tags": {
        "amenity": "waste_disposal",
        "operator": "Save Environment Actors"
      }
    },
    {
      "displayName": "SEI Toscana",
      "id": "seitoscana-709f3f",
      "locationSet": {"include": ["001"]},
      "tags": {
        "amenity": "waste_disposal",
        "operator": "SEI Toscana"
      }
    },
    {
      "displayName": "Servicios Comunales",
      "id": "servicioscomunales-709f3f",
      "locationSet": {"include": ["001"]},
      "tags": {
        "amenity": "waste_disposal",
        "operator": "Servicios Comunales"
      }
    },
    {
      "displayName": "Serviços Intermunicipalizados de Águas e Resíduos",
      "id": "servicosintermunicipalizadosdeaguaseresiduos-709f3f",
      "locationSet": {"include": ["001"]},
      "tags": {
        "amenity": "waste_disposal",
        "operator": "Serviços Intermunicipalizados de Águas e Resíduos"
      }
    },
    {
      "displayName": "SICTOM",
      "id": "sictom-709f3f",
      "locationSet": {"include": ["001"]},
      "tags": {
        "amenity": "waste_disposal",
        "operator": "SICTOM"
      }
    },
    {
      "displayName": "Siedlung Katzenstein e.V.",
      "id": "siedlungkatzensteinev-709f3f",
      "locationSet": {"include": ["001"]},
      "tags": {
        "amenity": "waste_disposal",
        "operator": "Siedlung Katzenstein e.V."
      }
    },
    {
      "displayName": "Sietom de Chalosse",
      "id": "sietomdechalosse-709f3f",
      "locationSet": {"include": ["001"]},
      "tags": {
        "amenity": "waste_disposal",
        "operator": "Sietom de Chalosse"
      }
    },
    {
      "displayName": "SIMAR",
      "id": "simar-709f3f",
      "locationSet": {"include": ["001"]},
      "tags": {
        "amenity": "waste_disposal",
        "operator": "SIMAR"
      }
    },
    {
      "displayName": "SITCOM - Côte sud des Landes",
      "id": "sitcomcotesuddeslandes-709f3f",
      "locationSet": {"include": ["001"]},
      "tags": {
        "amenity": "waste_disposal",
        "operator": "SITCOM - Côte sud des Landes"
      }
    },
    {
      "displayName": "Sivas Belediyesi",
      "id": "sivasbelediyesi-709f3f",
      "locationSet": {"include": ["001"]},
      "tags": {
        "amenity": "waste_disposal",
        "operator": "Sivas Belediyesi"
      }
    },
    {
      "displayName": "Služby města Český Krumlov s.r.o.",
      "id": "sluzbymestaceskykrumlovsro-709f3f",
      "locationSet": {"include": ["001"]},
      "tags": {
        "amenity": "waste_disposal",
        "operator": "Služby města Český Krumlov s.r.o."
      }
    },
    {
      "displayName": "SMAS Sintra",
      "id": "smassintra-709f3f",
      "locationSet": {"include": ["001"]},
      "tags": {
        "amenity": "waste_disposal",
        "operator": "SMAS Sintra"
      }
    },
    {
      "displayName": "SMND",
      "id": "smnd-709f3f",
      "locationSet": {"include": ["001"]},
      "tags": {
        "amenity": "waste_disposal",
        "operator": "SMND"
      }
    },
    {
      "displayName": "Society For Poverty Reduction (SOPORD)",
      "id": "societyforpovertyreductionsopord-709f3f",
      "locationSet": {"include": ["001"]},
      "tags": {
        "amenity": "waste_disposal",
        "operator": "Society For Poverty Reduction (SOPORD)"
      }
    },
    {
      "displayName": "socity",
      "id": "socity-709f3f",
      "locationSet": {"include": ["001"]},
      "tags": {
        "amenity": "waste_disposal",
        "operator": "socity"
      }
    },
    {
      "displayName": "Spóldzielnia Mieszkaniowa Jaroty",
      "id": "spoldzielniamieszkaniowajaroty-709f3f",
      "locationSet": {"include": ["001"]},
      "tags": {
        "amenity": "waste_disposal",
        "operator": "Spóldzielnia Mieszkaniowa Jaroty"
      }
    },
    {
      "displayName": "Spółdzielnia Mieszkaniowa w Bielawie",
      "id": "spoldzielniamieszkaniowawbielawie-709f3f",
      "locationSet": {"include": ["001"]},
      "tags": {
        "amenity": "waste_disposal",
        "operator": "Spółdzielnia Mieszkaniowa w Bielawie"
      }
    },
    {
      "displayName": "Stadswerk 072",
      "id": "stadswerk072-709f3f",
      "locationSet": {"include": ["001"]},
      "tags": {
        "amenity": "waste_disposal",
        "operator": "Stadswerk 072"
      }
    },
    {
      "displayName": "Stadt Wädenswil",
      "id": "stadtwadenswil-709f3f",
      "locationSet": {"include": ["001"]},
      "tags": {
        "amenity": "waste_disposal",
        "operator": "Stadt Wädenswil"
      }
    },
    {
      "displayName": "Syndicat mixte d’élimination des déchets de l’arrondissement de Rouen",
      "id": "syndicatmixtedeliminationdesdechetsdelarrondissementderouen-709f3f",
      "locationSet": {"include": ["001"]},
      "tags": {
        "amenity": "waste_disposal",
        "operator": "Syndicat mixte d’élimination des déchets de l’arrondissement de Rouen"
      }
    },
    {
      "displayName": "Terres du Lauragais",
      "id": "terresdulauragais-709f3f",
      "locationSet": {"include": ["001"]},
      "tags": {
        "amenity": "waste_disposal",
        "operator": "Terres du Lauragais"
      }
    },
    {
      "displayName": "toulouse_metropole",
      "id": "toulousemetropole-709f3f",
      "locationSet": {"include": ["001"]},
      "tags": {
        "amenity": "waste_disposal",
        "operator": "toulouse_metropole"
      }
    },
    {
      "displayName": "Tours Métropole Val de Loire",
      "id": "toursmetropolevaldeloire-709f3f",
      "locationSet": {"include": ["001"]},
      "tags": {
        "amenity": "waste_disposal",
        "operator": "Tours Métropole Val de Loire"
      }
    },
    {
      "displayName": "Trans-net",
      "id": "transnet-709f3f",
      "locationSet": {"include": ["001"]},
      "tags": {
        "amenity": "waste_disposal",
        "operator": "Trans-net"
      }
    },
    {
      "displayName": "Twente Milieu",
      "id": "twentemilieu-709f3f",
      "locationSet": {"include": ["001"]},
      "tags": {
        "amenity": "waste_disposal",
        "operator": "Twente Milieu"
      }
    },
    {
      "displayName": "Urbarser",
      "id": "urbarser-709f3f",
      "locationSet": {"include": ["001"]},
      "tags": {
        "amenity": "waste_disposal",
        "operator": "Urbarser"
      }
    },
    {
      "displayName": "Valence Romans Agglo",
      "id": "valenceromansagglo-709f3f",
      "locationSet": {"include": ["001"]},
      "tags": {
        "amenity": "waste_disposal",
        "operator": "Valence Romans Agglo"
      }
    },
    {
      "displayName": "Veolia",
      "id": "veolia-709f3f",
      "locationSet": {"include": ["001"]},
      "tags": {
        "amenity": "waste_disposal",
        "operator": "Veolia"
      }
    },
    {
      "displayName": "Veritas",
      "id": "veritas-709f3f",
      "locationSet": {"include": ["001"]},
      "tags": {
        "amenity": "waste_disposal",
        "operator": "Veritas"
      }
    },
    {
      "displayName": "Vichy Communauté",
      "id": "vichycommunaute-709f3f",
      "locationSet": {"include": ["001"]},
      "tags": {
        "amenity": "waste_disposal",
        "operator": "Vichy Communauté"
      }
    },
    {
      "displayName": "Volkswohnung GmbH",
      "id": "volkswohnunggmbh-709f3f",
      "locationSet": {"include": ["001"]},
      "tags": {
        "amenity": "waste_disposal",
        "operator": "Volkswohnung GmbH"
      }
    },
    {
      "displayName": "Waste Connections",
      "id": "wasteconnections-709f3f",
      "locationSet": {"include": ["001"]},
      "tags": {
        "amenity": "waste_disposal",
        "operator": "Waste Connections"
      }
    },
    {
      "displayName": "Waste Management",
      "id": "wastemanagement-84de51",
      "locationSet": {"include": ["us"]},
      "tags": {
        "amenity": "waste_disposal",
        "operator": "Waste Management",
        "operator:short": "WM",
        "operator:wikidata": "Q2552219"
      }
    },
    {
      "displayName": "ZAB",
      "id": "zab-709f3f",
      "locationSet": {"include": ["001"]},
      "tags": {
        "amenity": "waste_disposal",
        "operator": "ZAB"
      }
    },
    {
      "displayName": "Zabrzańska Spółdzielnia Mieszkaniowa",
      "id": "zabrzanskaspoldzielniamieszkaniowa-709f3f",
      "locationSet": {"include": ["001"]},
      "tags": {
        "amenity": "waste_disposal",
        "operator": "Zabrzańska Spółdzielnia Mieszkaniowa"
      }
    },
    {
      "displayName": "Zweckverband Abfallverwertung Bazenheid",
      "id": "zweckverbandabfallverwertungbazenheid-709f3f",
      "locationSet": {"include": ["001"]},
      "tags": {
        "amenity": "waste_disposal",
        "operator": "Zweckverband Abfallverwertung Bazenheid"
      }
    },
    {
      "displayName": "АВЕ",
      "id": "9b502d-709f3f",
      "locationSet": {"include": ["001"]},
      "tags": {
        "amenity": "waste_disposal",
        "operator": "АВЕ"
      }
    },
    {
      "displayName": "ВМР",
      "id": "00f6c8-709f3f",
      "locationSet": {"include": ["001"]},
      "tags": {
        "amenity": "waste_disposal",
        "operator": "ВМР"
      }
    },
    {
      "displayName": "ГУП \"Экотехпром\"",
      "id": "434ec4-709f3f",
      "locationSet": {"include": ["001"]},
      "tags": {
        "amenity": "waste_disposal",
        "operator": "ГУП \"Экотехпром\""
      }
    },
    {
      "displayName": "ЖКХ",
      "id": "1c3c6d-709f3f",
      "locationSet": {"include": ["001"]},
      "tags": {
        "amenity": "waste_disposal",
        "operator": "ЖКХ"
      }
    },
    {
      "displayName": "КАТП-1628",
      "id": "077d22-709f3f",
      "locationSet": {"include": ["001"]},
      "tags": {
        "amenity": "waste_disposal",
        "operator": "КАТП-1628"
      }
    },
    {
      "displayName": "Київкомунсервіс",
      "id": "56168c-709f3f",
      "locationSet": {"include": ["001"]},
      "tags": {
        "amenity": "waste_disposal",
        "operator": "Київкомунсервіс"
      }
    },
    {
      "displayName": "Комунальник 2011",
      "id": "48132e-709f3f",
      "locationSet": {"include": ["001"]},
      "tags": {
        "amenity": "waste_disposal",
        "operator": "Комунальник 2011"
      }
    },
    {
      "displayName": "Куприт",
      "id": "d0bc40-709f3f",
      "locationSet": {"include": ["001"]},
      "tags": {
        "amenity": "waste_disposal",
        "operator": "Куприт"
      }
    },
    {
      "displayName": "МД ШМКХ МИМХД ш.Норак",
      "id": "eca8da-709f3f",
      "locationSet": {"include": ["001"]},
      "tags": {
        "amenity": "waste_disposal",
        "operator": "МД ШМКХ МИМХД ш.Норак"
      }
    },
    {
      "displayName": "МУП \"САХ\"",
      "id": "b1f608-709f3f",
      "locationSet": {"include": ["001"]},
      "tags": {
        "amenity": "waste_disposal",
        "operator": "МУП \"САХ\""
      }
    },
    {
      "displayName": "ООО \"Эко Центр\"",
      "id": "4b3617-709f3f",
      "locationSet": {"include": ["001"]},
      "tags": {
        "amenity": "waste_disposal",
        "operator": "ООО \"Эко Центр\""
      }
    },
    {
      "displayName": "ООО \"Эколайн\"",
      "id": "3ede62-709f3f",
      "locationSet": {"include": ["001"]},
      "tags": {
        "amenity": "waste_disposal",
        "operator": "ООО \"Эколайн\""
      }
    },
    {
      "displayName": "ОралТазаСервис",
      "id": "26ead9-709f3f",
      "locationSet": {"include": ["001"]},
      "tags": {
        "amenity": "waste_disposal",
        "operator": "ОралТазаСервис"
      }
    },
    {
      "displayName": "ПП «Квартал-Л»",
      "id": "897b2b-709f3f",
      "locationSet": {"include": ["001"]},
      "tags": {
        "amenity": "waste_disposal",
        "operator": "ПП «Квартал-Л»"
      }
    },
    {
      "displayName": "Рифей",
      "id": "c9ad34-709f3f",
      "locationSet": {"include": ["001"]},
      "tags": {
        "amenity": "waste_disposal",
        "operator": "Рифей"
      }
    },
    {
      "displayName": "САТ",
      "id": "04ab90-709f3f",
      "locationSet": {"include": ["001"]},
      "tags": {
        "amenity": "waste_disposal",
        "operator": "САТ"
      }
    },
    {
      "displayName": "ТКО",
      "id": "9fd878-709f3f",
      "locationSet": {"include": ["001"]},
      "tags": {
        "amenity": "waste_disposal",
        "operator": "ТКО"
      }
    },
    {
      "displayName": "Фанипольское ЖКХ",
      "id": "497609-709f3f",
      "locationSet": {"include": ["001"]},
      "tags": {
        "amenity": "waste_disposal",
        "operator": "Фанипольское ЖКХ"
      }
    },
    {
      "displayName": "ЦКС",
      "id": "810602-709f3f",
      "locationSet": {"include": ["001"]},
      "tags": {
        "amenity": "waste_disposal",
        "operator": "ЦКС"
      }
    },
    {
      "displayName": "Чистый город",
      "id": "f9896c-709f3f",
      "locationSet": {"include": ["001"]},
      "tags": {
        "amenity": "waste_disposal",
        "operator": "Чистый город"
      }
    },
    {
      "displayName": "ЧП \"Ладис\"",
      "id": "0eeaf5-709f3f",
      "locationSet": {"include": ["001"]},
      "tags": {
        "amenity": "waste_disposal",
        "operator": "ЧП \"Ладис\""
      }
    },
    {
      "displayName": "بيئة",
      "id": "b9b367-709f3f",
      "locationSet": {"include": ["001"]},
      "tags": {
        "amenity": "waste_disposal",
        "operator": "بيئة"
      }
    },
    {
      "displayName": "شهرداری ناحیه 6",
      "id": "468415-709f3f",
      "locationSet": {"include": ["001"]},
      "tags": {
        "amenity": "waste_disposal",
        "operator": "شهرداری ناحیه 6"
      }
    },
    {
      "displayName": "会津若松市",
      "id": "8bd6bb-709f3f",
      "locationSet": {"include": ["001"]},
      "tags": {
        "amenity": "waste_disposal",
        "operator": "会津若松市"
      }
    },
    {
      "displayName": "東京都清瀬市",
      "id": "470310-709f3f",
      "locationSet": {"include": ["001"]},
      "tags": {
        "amenity": "waste_disposal",
        "operator": "東京都清瀬市"
      }
    }
  ]
}
